{
  "type": "FeatureCollection",
  "features": [
    {
      "type": "Feature",
      "properties": {
        "norad_id": 33412,
        "name": "COSMO-SKYMED 3",
        "group": "resource",
        "lat": -53.60808080058011,
        "lon": 20.78630265761876,
        "alt_km": 560.7237220419447,
        "timestamp": "2025-12-26T22:28:05.435900+00:00",
        "meta_object_name": "COSMO-SKYMED 3",
        "meta_object_id": "2008-054A",
        "meta_epoch": "2025-12-26T18:14:30.558624",
        "meta_mean_motion": 15.05474289,
        "meta_eccentricity": 0.0017156,
        "meta_inclination": 97.8451,
        "meta_ra_of_asc_node": 211.3892,
        "meta_arg_of_pericenter": 126.8856,
        "meta_mean_anomaly": 233.3945,
        "meta_ephemeris_type": 0,
        "meta_classification_type": "U",
        "meta_norad_cat_id": 33412,
        "meta_element_set_no": 999,
        "meta_rev_at_epoch": 93098,
        "meta_bstar": 0.00027734,
        "meta_mean_motion_dot": 3.933e-05,
        "meta_mean_motion_ddot": 0,
        "tle_line1": "1 33412U 08054A   25360.76007591  .00003933  00000+0  27734-3 0  9994",
        "tle_line2": "2 33412  97.8451 211.3892 0017156 126.8856 233.3945 15.05474289930984"
      },
      "geometry": {
        "type": "Point",
        "coordinates": [
          20.78630265761876,
          -53.60808080058011
        ]
      }
    },
    {
      "type": "Feature",
      "properties": {
        "norad_id": 33446,
        "name": "YAOGAN-4",
        "group": "resource",
        "lat": 43.27290749033665,
        "lon": 118.42820861092459,
        "alt_km": 623.7656420577041,
        "timestamp": "2025-12-26T22:28:05.435911+00:00",
        "meta_object_name": "YAOGAN-4",
        "meta_object_id": "2008-061A",
        "meta_epoch": "2025-12-26T18:36:57.310848",
        "meta_mean_motion": 14.82723581,
        "meta_eccentricity": 0.0012963,
        "meta_inclination": 97.9198,
        "meta_ra_of_asc_node": 290.7385,
        "meta_arg_of_pericenter": 273.4167,
        "meta_mean_anomaly": 86.5564,
        "meta_ephemeris_type": 0,
        "meta_classification_type": "U",
        "meta_norad_cat_id": 33446,
        "meta_element_set_no": 999,
        "meta_rev_at_epoch": 92011,
        "meta_bstar": 0.00019776,
        "meta_mean_motion_dot": 1.545e-05,
        "meta_mean_motion_ddot": 0,
        "tle_line1": "1 33446U 08061A   25360.77566332  .00001545  00000+0  19776-3 0  9997",
        "tle_line2": "2 33446  97.9198 290.7385 0012963 273.4167  86.5564 14.82723581920118"
      },
      "geometry": {
        "type": "Point",
        "coordinates": [
          118.42820861092459,
          43.27290749033665
        ]
      }
    },
    {
      "type": "Feature",
      "properties": {
        "norad_id": 33492,
        "name": "GOSAT (IBUKI)",
        "group": "resource",
        "lat": 44.5362287265636,
        "lon": -62.625798221391236,
        "alt_km": 664.4854970087636,
        "timestamp": "2025-12-26T22:28:05.435921+00:00",
        "meta_object_name": "GOSAT (IBUKI)",
        "meta_object_id": "2009-002A",
        "meta_epoch": "2025-12-26T07:07:43.620960",
        "meta_mean_motion": 14.67550857,
        "meta_eccentricity": 0.0001037,
        "meta_inclination": 98.0771,
        "meta_ra_of_asc_node": 108.712,
        "meta_arg_of_pericenter": 105.7066,
        "meta_mean_anomaly": 254.4253,
        "meta_ephemeris_type": 0,
        "meta_classification_type": "U",
        "meta_norad_cat_id": 33492,
        "meta_element_set_no": 999,
        "meta_rev_at_epoch": 90610,
        "meta_bstar": 0.00017142,
        "meta_mean_motion_dot": 9.24e-06,
        "meta_mean_motion_ddot": 0,
        "tle_line1": "1 33492U 09002A   25360.29703265  .00000924  00000+0  17142-3 0  9994",
        "tle_line2": "2 33492  98.0771 108.7120 0001037 105.7066 254.4253 14.67550857906109"
      },
      "geometry": {
        "type": "Point",
        "coordinates": [
          -62.625798221391236,
          44.5362287265636
        ]
      }
    },
    {
      "type": "Feature",
      "properties": {
        "norad_id": 35681,
        "name": "DEIMOS-1",
        "group": "resource",
        "lat": -50.26473342089114,
        "lon": -28.507563902707556,
        "alt_km": 653.8157217181733,
        "timestamp": "2025-12-26T22:28:05.435933+00:00",
        "meta_object_name": "DEIMOS-1",
        "meta_object_id": "2009-041A",
        "meta_epoch": "2025-12-26T18:10:07.222656",
        "meta_mean_motion": 14.74974663,
        "meta_eccentricity": 0.0002382,
        "meta_inclination": 97.7159,
        "meta_ra_of_asc_node": 160.7086,
        "meta_arg_of_pericenter": 58.3867,
        "meta_mean_anomaly": 301.7575,
        "meta_ephemeris_type": 0,
        "meta_classification_type": "U",
        "meta_norad_cat_id": 35681,
        "meta_element_set_no": 999,
        "meta_rev_at_epoch": 88146,
        "meta_bstar": 0.00016265,
        "meta_mean_motion_dot": 1.046e-05,
        "meta_mean_motion_ddot": 0,
        "tle_line1": "1 35681U 09041A   25360.75702804  .00001046  00000+0  16265-3 0  9999",
        "tle_line2": "2 35681  97.7159 160.7086 0002382  58.3867 301.7575 14.74974663881469"
      },
      "geometry": {
        "type": "Point",
        "coordinates": [
          -28.507563902707556,
          -50.26473342089114
        ]
      }
    },
    {
      "type": "Feature",
      "properties": {
        "norad_id": 35682,
        "name": "DUBAISAT-1",
        "group": "resource",
        "lat": 31.019960065811375,
        "lon": -43.75347517494022,
        "alt_km": 647.340966035853,
        "timestamp": "2025-12-26T22:28:05.435943+00:00",
        "meta_object_name": "DUBAISAT-1",
        "meta_object_id": "2009-041B",
        "meta_epoch": "2025-12-26T15:16:54.704928",
        "meta_mean_motion": 14.74642191,
        "meta_eccentricity": 0.0009257,
        "meta_inclination": 97.9799,
        "meta_ra_of_asc_node": 131.1127,
        "meta_arg_of_pericenter": 264.3825,
        "meta_mean_anomaly": 95.6328,
        "meta_ephemeris_type": 0,
        "meta_classification_type": "U",
        "meta_norad_cat_id": 35682,
        "meta_element_set_no": 999,
        "meta_rev_at_epoch": 87966,
        "meta_bstar": 0.00022737,
        "meta_mean_motion_dot": 1.467e-05,
        "meta_mean_motion_ddot": 0,
        "tle_line1": "1 35682U 09041B   25360.63674427  .00001467  00000+0  22737-3 0  9994",
        "tle_line2": "2 35682  97.9799 131.1127 0009257 264.3825  95.6328 14.74642191879663"
      },
      "geometry": {
        "type": "Point",
        "coordinates": [
          -43.75347517494022,
          31.019960065811375
        ]
      }
    },
    {
      "type": "Feature",
      "properties": {
        "norad_id": 35931,
        "name": "OCEANSAT-2",
        "group": "resource",
        "lat": 77.95644624390012,
        "lon": -137.24232174921926,
        "alt_km": 888.004924617805,
        "timestamp": "2025-12-26T22:28:05.435954+00:00",
        "meta_object_name": "OCEANSAT-2",
        "meta_object_id": "2009-051A",
        "meta_epoch": "2025-12-26T18:34:02.591904",
        "meta_mean_motion": 13.99623073,
        "meta_eccentricity": 0.0015864,
        "meta_inclination": 98.2218,
        "meta_ra_of_asc_node": 359.9501,
        "meta_arg_of_pericenter": 8.1315,
        "meta_mean_anomaly": 352.0105,
        "meta_ephemeris_type": 0,
        "meta_classification_type": "U",
        "meta_norad_cat_id": 35931,
        "meta_element_set_no": 999,
        "meta_rev_at_epoch": 85521,
        "meta_bstar": 4.9022e-05,
        "meta_mean_motion_dot": 3.4e-07,
        "meta_mean_motion_ddot": 0,
        "tle_line1": "1 35931U 09051A   25360.77364111  .00000034  00000+0  49022-4 0  9999",
        "tle_line2": "2 35931  98.2218 359.9501 0015864   8.1315 352.0105 13.99623073855217"
      },
      "geometry": {
        "type": "Point",
        "coordinates": [
          -137.24232174921926,
          77.95644624390012
        ]
      }
    },
    {
      "type": "Feature",
      "properties": {
        "norad_id": 35946,
        "name": "WORLDVIEW-2 (WV-2)",
        "group": "resource",
        "lat": 4.780045353617818,
        "lon": 71.1110244534634,
        "alt_km": 765.4496866949939,
        "timestamp": "2025-12-26T22:28:05.435965+00:00",
        "meta_object_name": "WORLDVIEW-2 (WV-2)",
        "meta_object_id": "2009-055A",
        "meta_epoch": "2025-12-26T17:26:05.985888",
        "meta_mean_motion": 14.37730244,
        "meta_eccentricity": 0.0004634,
        "meta_inclination": 98.4771,
        "meta_ra_of_asc_node": 71.6188,
        "meta_arg_of_pericenter": 35.8919,
        "meta_mean_anomaly": 324.2578,
        "meta_ephemeris_type": 0,
        "meta_classification_type": "U",
        "meta_norad_cat_id": 35946,
        "meta_element_set_no": 999,
        "meta_rev_at_epoch": 85086,
        "meta_bstar": 7.7753e-05,
        "meta_mean_motion_dot": 1.9e-06,
        "meta_mean_motion_ddot": 0,
        "tle_line1": "1 35946U 09055A   25360.72645817  .00000190  00000+0  77753-4 0  9994",
        "tle_line2": "2 35946  98.4771  71.6188 0004634  35.8919 324.2578 14.37730244850861"
      },
      "geometry": {
        "type": "Point",
        "coordinates": [
          71.1110244534634,
          4.780045353617818
        ]
      }
    }
  ]
}